$$SOE
2460154.500000000, A.D. 2023-Jul-29 00:00:00.0000, -4.226296981426301E+08, -2.805619237817091E+08, 7.311384045553654E+05,
2460161.500000000, A.D. 2023-Aug-05 00:00:00.0000, -4.175716435679424E+08, -2.884898733956649E+08, -8.411688994738460E+05,
2460168.500000000, A.D. 2023-Aug-12 00:00:00.0000, -4.123586012051166E+08, -2.963107197571626E+08, -2.413162023759454E+06,
2460175.500000000, A.D. 2023-Aug-19 00:00:00.0000, -4.069927335545582E+08, -3.040217224675596E+08, -3.984258435351923E+06,
2460182.500000000, A.D. 2023-Aug-26 00:00:00.0000, -4.014762447555973E+08, -3.116201840274566E+08, -5.553877582563803E+06,
2460189.500000000, A.D. 2023-Sep-02 00:00:00.0000, -3.958113798923646E+08, -3.191034501223601E+08, -7.121441002870053E+06,
2460196.500000000, A.D. 2023-Sep-09 00:00:00.0000, -3.900004242975698E+08, -3.264689100140565E+08, -8.686372440194219E+06,
2460203.500000000, A.D. 2023-Sep-16 00:00:00.0000, -3.840457026855593E+08, -3.337139970963119E+08, -1.024809799181575E+07,
2460210.500000000, A.D. 2023-Sep-23 00:00:00.0000, -3.779495776979906E+08, -3.408361893286622E+08, -1.180604629968047E+07,
2460217.500000000, A.D. 2023-Sep-30 00:00:00.0000, -3.717144482012406E+08, -3.478330083579147E+08, -1.335964865764199E+07,
2460224.500000000, A.D. 2023-Oct-07 00:00:00.0000, -3.653427496884405E+08, -3.547020178705428E+08, -1.490833886307098E+07,
2460231.500000000, A.D. 2023-Oct-14 00:00:00.0000, -3.588369557456803E+08, -3.614408244902828E+08, -1.645155317898662E+07,
2460238.500000000, A.D. 2023-Oct-21 00:00:00.0000, -3.521995773542174E+08, -3.680470796195811E+08, -1.798873057184729E+07,
2460245.500000000, A.D. 2023-Oct-28 00:00:00.0000, -3.454331614533297E+08, -3.745184799651462E+08, -1.951931290948136E+07,
2460252.500000000, A.D. 2023-Nov-04 00:00:00.0000, -3.385402900133112E+08, -3.808527675178608E+08, -2.104274506722867E+07,
2460259.500000000, A.D. 2023-Nov-11 00:00:00.0000, -3.315235794401548E+08, -3.870477295871199E+08, -2.255847500741389E+07,
2460266.500000000, A.D. 2023-Nov-18 00:00:00.0000, -3.243856800916886E+08, -3.931011989545916E+08, -2.406595385741761E+07,
2460273.500000000, A.D. 2023-Nov-25 00:00:00.0000, -3.171292758319755E+08, -3.990110541257634E+08, -2.556463599110827E+07,
2460280.500000000, A.D. 2023-Dec-02 00:00:00.0000, -3.097570835956510E+08, -4.047752196912844E+08, -2.705397911708862E+07,
2460287.500000000, A.D. 2023-Dec-09 00:00:00.0000, -3.022718528842191E+08, -4.103916668576440E+08, -2.853344438570845E+07,
2460294.500000000, A.D. 2023-Dec-16 00:00:00.0000, -2.946763649065123E+08, -4.158584141351550E+08, -3.000249654025665E+07,
2460301.500000000, A.D. 2023-Dec-23 00:00:00.0000, -2.869734310145570E+08, -4.211735274962462E+08, -3.146060408825570E+07,
2460308.500000000, A.D. 2023-Dec-30 00:00:00.0000, -2.791658917745398E+08, -4.263351189549839E+08, -3.290723928437516E+07,
2460315.500000000, A.D. 2024-Jan-06 00:00:00.0000, -2.712566184444265E+08, -4.313413459288203E+08, -3.434187795560881E+07,
2460322.500000000, A.D. 2024-Jan-13 00:00:00.0000, -2.632485136850159E+08, -4.361904131906742E+08, -3.576399960786620E+07,
2460329.500000000, A.D. 2024-Jan-20 00:00:00.0000, -2.551445102813367E+08, -4.408805743279474E+08, -3.717308767460498E+07,
2460336.500000000, A.D. 2024-Jan-27 00:00:00.0000, -2.469475699035051E+08, -4.454101320562534E+08, -3.856862966842335E+07,
2460343.500000000, A.D. 2024-Feb-03 00:00:00.0000, -2.386606823351282E+08, -4.497774383355548E+08, -3.995011727399492E+07,
2460350.500000000, A.D. 2024-Feb-10 00:00:00.0000, -2.302868648908585E+08, -4.539808945787097E+08, -4.131704643164286E+07,
2460357.500000000, A.D. 2024-Feb-17 00:00:00.0000, -2.218291618827663E+08, -4.580189519438316E+08, -4.266891742369074E+07,
2460364.500000000, A.D. 2024-Feb-24 00:00:00.0000, -2.132906440978655E+08, -4.618901116959772E+08, -4.400523496584493E+07,
2460371.500000000, A.D. 2024-Mar-02 00:00:00.0000, -2.046744082562344E+08, -4.655929256718880E+08, -4.532550830925632E+07,
2460378.500000000, A.D. 2024-Mar-09 00:00:00.0000, -1.959835763104875E+08, -4.691259969122138E+08, -4.662925137150571E+07,
2460385.500000000, A.D. 2024-Mar-16 00:00:00.0000, -1.872212941914543E+08, -4.724879802652835E+08, -4.791598291700086E+07,
2460392.500000000, A.D. 2024-Mar-23 00:00:00.0000, -1.783907301039886E+08, -4.756775818539852E+08, -4.918522668687558E+07,
2460399.500000000, A.D. 2024-Mar-30 00:00:00.0000, -1.694950746139625E+08, -4.786935574322076E+08, -5.043651127507171E+07,
2460406.500000000, A.D. 2024-Apr-06 00:00:00.0000, -1.605375422695450E+08, -4.815347129980109E+08, -5.166937004933128E+07,
2460413.500000000, A.D. 2024-Apr-13 00:00:00.0000, -1.515213712048331E+08, -4.841999068276387E+08, -5.288334137462300E+07,
2460420.500000000, A.D. 2024-Apr-20 00:00:00.0000, -1.424498216777108E+08, -4.866880502543381E+08, -5.407796883305052E+07,
2460427.500000000, A.D. 2024-Apr-27 00:00:00.0000, -1.333261750586156E+08, -4.889981077533180E+08, -5.525280134697244E+07,
2460434.500000000, A.D. 2024-May-04 00:00:00.0000, -1.241537331817355E+08, -4.911290970358067E+08, -5.640739327081779E+07,
2460441.500000000, A.D. 2024-May-11 00:00:00.0000, -1.149358178195751E+08, -4.930800892534508E+08, -5.754130448169073E+07,
2460448.500000000, A.D. 2024-May-18 00:00:00.0000, -1.056757701980640E+08, -4.948502092909130E+08, -5.865410047442016E+07,
2460455.500000000, A.D. 2024-May-25 00:00:00.0000, -9.637695052667703E+07, -4.964386361534621E+08, -5.974535246381342E+07,
2460462.500000000, A.D. 2024-Jun-01 00:00:00.0000, -8.704273748310475E+07, -4.978446035067859E+08, -6.081463750416520E+07,
2460469.500000000, A.D. 2024-Jun-08 00:00:00.0000, -7.767652740566470E+07, -4.990674003916925E+08, -6.186153865028271E+07,
2460476.500000000, A.D. 2024-Jun-15 00:00:00.0000, -6.828173279349573E+07, -5.001063715681393E+08, -6.288564515182018E+07,
2460483.500000000, A.D. 2024-Jun-22 00:00:00.0000, -5.886178111920790E+07, -5.009609163126312E+08, -6.388655249229038E+07,
2460490.500000000, A.D. 2024-Jun-29 00:00:00.0000, -4.942011607461348E+07, -5.016304874885138E+08, -6.486386222650617E+07,
2460497.500000000, A.D. 2024-Jul-06 00:00:00.0000, -3.996019860294314E+07, -5.021145933595866E+08, -6.581718206075761E+07,
2460504.500000000, A.D. 2024-Jul-13 00:00:00.0000, -3.048550576701253E+07, -5.024127993235869E+08, -6.674612612378082E+07,
2460511.500000000, A.D. 2024-Jul-20 00:00:00.0000, -2.099952943837591E+07, -5.025247284175931E+08, -6.765031515264139E+07,
2460518.500000000, A.D. 2024-Jul-27 00:00:00.0000, -1.150577546302748E+07, -5.024500615549965E+08, -6.852937661190322E+07,
2460525.500000000, A.D. 2024-Aug-03 00:00:00.0000, -2.007763030294201E+06, -5.021885378687981E+08, -6.938294480192128E+07,
2460532.500000000, A.D. 2024-Aug-10 00:00:00.0000, 7.490975921334542E+06, -5.017399551651458E+08, -7.021066097201839E+07,
2460539.500000000, A.D. 2024-Aug-17 00:00:00.0000, 1.698689730946684E+07, -5.011041704645984E+08, -7.101217344133756E+07,
2460546.500000000, A.D. 2024-Aug-24 00:00:00.0000, 2.647644555292857E+07, -5.002811006526775E+08, -7.178713773205194E+07,
2460553.500000000, A.D. 2024-Aug-31 00:00:00.0000, 3.595605437332255E+07, -4.992707233008338E+08, -7.253521673095703E+07,
2460560.500000000, A.D. 2024-Sep-07 00:00:00.0000, 4.542214811927346E+07, -4.980730775313877E+08, -7.325608090306520E+07,
2460567.500000000, A.D. 2024-Sep-14 00:00:00.0000, 5.487114369903591E+07, -4.966882639305074E+08, -7.394940848401237E+07,
2460574.500000000, A.D. 2024-Sep-21 00:00:00.0000, 6.429945109275926E+07, -4.951164430960557E+08, -7.461488543167824E+07,
2460581.500000000, A.D. 2024-Sep-28 00:00:00.0000, 7.370347195719551E+07, -4.933578360464924E+08, -7.525220535608825E+07,
2460588.500000000, A.D. 2024-Oct-05 00:00:00.0000, 8.307959999326675E+07, -4.914127264879382E+08, -7.586106976407489E+07,
2460595.500000000, A.D. 2024-Oct-12 00:00:00.0000, 9.242422271637708E+07, -4.892814619585951E+08, -7.644118834207451E+07,
2460602.500000000, A.D. 2024-Oct-19 00:00:00.0000, 1.017337228789023E+08, -4.869644541200123E+08, -7.699227913836244E+07,
2460609.500000000, A.D. 2024-Oct-26 00:00:00.0000, 1.110044795133844E+08, -4.844621789947684E+08, -7.751406870695278E+07,
2460616.500000000, A.D. 2024-Nov-02 00:00:00.0000, 1.202328688552710E+08, -4.817751772974604E+08, -7.800629224876061E+07,
2460623.500000000, A.D. 2024-Nov-09 00:00:00.0000, 1.294152652434145E+08, -4.789040548374698E+08, -7.846869375727701E+07,
2460630.500000000, A.D. 2024-Nov-16 00:00:00.0000, 1.385480420255871E+08, -4.758494829928356E+08, -7.890102617129764E+07,
2460637.500000000, A.D. 2024-Nov-23 00:00:00.0000, 1.476275725169871E+08, -4.726121993048434E+08, -7.930305154325452E+07,
2460644.500000000, A.D. 2024-Nov-30 00:00:00.0000, 1.566502312208604E+08, -4.691930082357326E+08, -7.967454124584004E+07,
2460651.500000000, A.D. 2024-Dec-07 00:00:00.0000, 1.656123957312391E+08, -4.655927816686974E+08, -8.001527622101361E+07,
2460658.500000000, A.D. 2024-Dec-14 00:00:00.0000, 1.745104486293405E+08, -4.618124579257541E+08, -8.032504710804176E+07,
2460665.500000000, A.D. 2024-Dec-21 00:00:00.0000, 1.833407770549155E+08, -4.578530405428233E+08, -8.060365413888392E+07,
2460672.500000000, A.D. 2024-Dec-28 00:00:00.0000, 1.920997719253114E+08, -4.537155997669831E+08, -8.085090722378355E+07,
2460679.500000000, A.D. 2025-Jan-04 00:00:00.0000, 2.007838294006189E+08, -4.494012743980695E+08, -8.106662627075237E+07,
2460686.500000000, A.D. 2025-Jan-11 00:00:00.0000, 2.093893527747077E+08, -4.449112723140808E+08, -8.125064143603110E+07,
2460693.500000000, A.D. 2025-Jan-18 00:00:00.0000, 2.179127538758987E+08, -4.402468705983472E+08, -8.140279329619408E+07,
2460700.500000000, A.D. 2025-Jan-25 00:00:00.0000, 2.263504542213356E+08, -4.354094157419100E+08, -8.152293300263354E+07,
2460707.500000000, A.D. 2025-Feb-01 00:00:00.0000, 2.346988861150663E+08, -4.304003239500642E+08, -8.161092243786687E+07,
2460714.500000000, A.D. 2025-Feb-08 00:00:00.0000, 2.429544937485866E+08, -4.252210815320956E+08, -8.166663437699789E+07,
$$EOE